CELESTIS-02             
1 25160U 98007D   23073.94683949  .00000318  00000+0  19909-3 0  9997
2 25160 107.9951  91.5234 0062195   5.6608  52.8003 14.21733212301301
CELESTIS-03             
1 26034U 99070C   23073.87131602  .00105982  00000+0  28862-2 0  9995
2 26034  98.2882 114.1233 0005878 271.0349  89.0219 15.37062592262282
